[{"OBJECT_NAME":"YAOGAN-31 01B","OBJECT_ID":"2018-034B","EPOCH":"2026-03-09T23:45:28.024416","MEAN_MOTION":13.45448043,"ECCENTRICITY":0.02667976,"INCLINATION":63.3987,"RA_OF_ASC_NODE":346.5136,"ARG_OF_PERICENTER":7.0679,"MEAN_ANOMALY":353.3992,"EPHEMERIS_TYPE":0,"CLASSIFICATION_TYPE":"U","NORAD_CAT_ID":43276,"ELEMENT_SET_NO":999,"REV_AT_EPOCH":38887,"BSTAR":-4.4582988e-5,"MEAN_MOTION_DOT":-1.23e-6,"MEAN_MOTION_DDOT":0},{"OBJECT_NAME":"SL-8 R\/B","OBJECT_ID":"1979-090B","EPOCH":"2026-03-09T21:18:03.850848","MEAN_MOTION":13.79305443,"ECCENTRICITY":0.00258757,"INCLINATION":82.9441,"RA_OF_ASC_NODE":215.8683,"ARG_OF_PERICENTER":262.2465,"MEAN_ANOMALY":97.5756,"EPHEMERIS_TYPE":0,"CLASSIFICATION_TYPE":"U","NORAD_CAT_ID":11586,"ELEMENT_SET_NO":999,"REV_AT_EPOCH":31384,"BSTAR":3.2858554e-5,"MEAN_MOTION_DOT":4.9e-7,"MEAN_MOTION_DDOT":0}]
